{"fetched_at":"2026-03-29T16:36:15Z","count":15609,"tles":[{"name":"STARLINK-31882","line1":"1 59855U 24097W   26087.88970534 -.00001829  00000+0 -56948-4 0  9998","line2":"2 59855  43.0010 158.9526 0001214 267.8007  92.2705 15.27582529104934","category":"Starlink"}]}